{
  "type": "FeatureCollection",
  "features": [
    {
      "type": "Feature",
      "properties": {
        "norad_id": 38512,
        "name": "FENGYUN 1C DEB",
        "group": "fengyun-1c-debris",
        "lat": 38.258300487948446,
        "lon": 68.57913850196195,
        "alt_km": 940.9213659052266,
        "timestamp": "2025-12-27T22:26:48.892638+00:00",
        "meta_object_name": "FENGYUN 1C DEB",
        "meta_object_id": "1999-025ESX",
        "meta_epoch": "2025-12-10T03:21:08.986176",
        "meta_mean_motion": 13.7397021,
        "meta_eccentricity": 0.02264501,
        "meta_inclination": 98.3804,
        "meta_ra_of_asc_node": 226.2794,
        "meta_arg_of_pericenter": 112.1956,
        "meta_mean_anomaly": 250.339,
        "meta_ephemeris_type": 0,
        "meta_classification_type": "U",
        "meta_norad_cat_id": 38512,
        "meta_element_set_no": 999,
        "meta_rev_at_epoch": 59534,
        "meta_bstar": 0.0014232555,
        "meta_mean_motion_dot": 1.573e-05,
        "meta_mean_motion_ddot": 0,
        "tle_line1": "1 38512U 99025ESX 25344.13968734  .00001573  00000+0  14233-2 0  9993",
        "tle_line2": "2 38512  98.3804 226.2794 0226450 112.1956 250.3390 13.73970210595340"
      },
      "geometry": {
        "type": "Point",
        "coordinates": [
          68.57913850196195,
          38.258300487948446
        ]
      }
    },
    {
      "type": "Feature",
      "properties": {
        "norad_id": 38514,
        "name": "FENGYUN 1C DEB",
        "group": "fengyun-1c-debris",
        "lat": -1.1196251227647327,
        "lon": 30.244666179576697,
        "alt_km": 670.7498383705188,
        "timestamp": "2025-12-27T22:26:48.892648+00:00",
        "meta_object_name": "FENGYUN 1C DEB",
        "meta_object_id": "1999-025ESZ",
        "meta_epoch": "2025-12-25T00:56:07.133280",
        "meta_mean_motion": 14.16200659,
        "meta_eccentricity": 0.02694365,
        "meta_inclination": 98.0544,
        "meta_ra_of_asc_node": 27.4614,
        "meta_arg_of_pericenter": 337.8346,
        "meta_mean_anomaly": 21.1356,
        "meta_ephemeris_type": 0,
        "meta_classification_type": "U",
        "meta_norad_cat_id": 38514,
        "meta_element_set_no": 999,
        "meta_rev_at_epoch": 88170,
        "meta_bstar": 0.0072966296,
        "meta_mean_motion_dot": 0.00020596,
        "meta_mean_motion_ddot": 0,
        "tle_line1": "1 38514U 99025ESZ 25359.03897145  .00020596  00000+0  72966-2 0  9990",
        "tle_line2": "2 38514  98.0544  27.4614 0269436 337.8346  21.1356 14.16200659881707"
      },
      "geometry": {
        "type": "Point",
        "coordinates": [
          30.244666179576697,
          -1.1196251227647327
        ]
      }
    },
    {
      "type": "Feature",
      "properties": {
        "norad_id": 38516,
        "name": "FENGYUN 1C DEB",
        "group": "fengyun-1c-debris",
        "lat": -55.16373490046747,
        "lon": 153.16843941750622,
        "alt_km": 857.8464863686213,
        "timestamp": "2025-12-27T22:26:48.892658+00:00",
        "meta_object_name": "FENGYUN 1C DEB",
        "meta_object_id": "1999-025ETB",
        "meta_epoch": "2025-12-24T16:19:45.991488",
        "meta_mean_motion": 14.34056403,
        "meta_eccentricity": 0.0111753,
        "meta_inclination": 98.4438,
        "meta_ra_of_asc_node": 342.3136,
        "meta_arg_of_pericenter": 90.1675,
        "meta_mean_anomaly": 271.2316,
        "meta_ephemeris_type": 0,
        "meta_classification_type": "U",
        "meta_norad_cat_id": 38516,
        "meta_element_set_no": 999,
        "meta_rev_at_epoch": 85044,
        "meta_bstar": 0.00010995262,
        "meta_mean_motion_dot": 2.86e-06,
        "meta_mean_motion_ddot": 0,
        "tle_line1": "1 38516U 99025ETB 25358.68039342  .00000286  00000+0  10995-3 0  9998",
        "tle_line2": "2 38516  98.4438 342.3136 0111753  90.1675 271.2316 14.34056403850442"
      },
      "geometry": {
        "type": "Point",
        "coordinates": [
          153.16843941750622,
          -55.16373490046747
        ]
      }
    },
    {
      "type": "Feature",
      "properties": {
        "norad_id": 38717,
        "name": "FENGYUN 1C DEB",
        "group": "fengyun-1c-debris",
        "lat": 46.00812875059656,
        "lon": 8.053671428767334,
        "alt_km": 825.4348392110087,
        "timestamp": "2025-12-27T22:26:48.892667+00:00",
        "meta_object_name": "FENGYUN 1C DEB",
        "meta_object_id": "1999-025ETJ",
        "meta_epoch": "2025-12-24T22:03:53.256096",
        "meta_mean_motion": 14.20015413,
        "meta_eccentricity": 0.0056679,
        "meta_inclination": 99.159,
        "meta_ra_of_asc_node": 14.5537,
        "meta_arg_of_pericenter": 319.0922,
        "meta_mean_anomaly": 158.0056,
        "meta_ephemeris_type": 0,
        "meta_classification_type": "U",
        "meta_norad_cat_id": 38717,
        "meta_element_set_no": 999,
        "meta_rev_at_epoch": 58599,
        "meta_bstar": 0.0017391,
        "meta_mean_motion_dot": 3.714e-05,
        "meta_mean_motion_ddot": 0,
        "tle_line1": "1 38717U 99025ETJ 25358.91936639  .00003714  00000+0  17391-2 0  9997",
        "tle_line2": "2 38717  99.1590  14.5537 0056679 319.0922 158.0056 14.20015413585997"
      },
      "geometry": {
        "type": "Point",
        "coordinates": [
          8.053671428767334,
          46.00812875059656
        ]
      }
    },
    {
      "type": "Feature",
      "properties": {
        "norad_id": 38722,
        "name": "FENGYUN 1C DEB",
        "group": "fengyun-1c-debris",
        "lat": 26.014883847388788,
        "lon": 97.53757240727558,
        "alt_km": 600.7577445619017,
        "timestamp": "2025-12-27T22:26:48.892677+00:00",
        "meta_object_name": "FENGYUN 1C DEB",
        "meta_object_id": "1999-025ETP",
        "meta_epoch": "2025-12-23T03:05:34.681632",
        "meta_mean_motion": 14.58641148,
        "meta_eccentricity": 0.0145982,
        "meta_inclination": 99.353,
        "meta_ra_of_asc_node": 96.7446,
        "meta_arg_of_pericenter": 63.5175,
        "meta_mean_anomaly": 298.091,
        "meta_ephemeris_type": 0,
        "meta_classification_type": "U",
        "meta_norad_cat_id": 38722,
        "meta_element_set_no": 999,
        "meta_rev_at_epoch": 70615,
        "meta_bstar": 0.0021733607,
        "meta_mean_motion_dot": 0.00011693,
        "meta_mean_motion_ddot": 0,
        "tle_line1": "1 38722U 99025ETP 25357.12887363  .00011693  00000+0  21734-2 0  9995",
        "tle_line2": "2 38722  99.3530  96.7446 0145982  63.5175 298.0910 14.58641148706155"
      },
      "geometry": {
        "type": "Point",
        "coordinates": [
          97.53757240727558,
          26.014883847388788
        ]
      }
    },
    {
      "type": "Feature",
      "properties": {
        "norad_id": 38725,
        "name": "FENGYUN 1C DEB",
        "group": "fengyun-1c-debris",
        "lat": 59.444948209411194,
        "lon": -36.880180474742126,
        "alt_km": 743.7805952041599,
        "timestamp": "2025-12-27T22:26:48.892687+00:00",
        "meta_object_name": "FENGYUN 1C DEB",
        "meta_object_id": "1999-025ETS",
        "meta_epoch": "2025-12-24T14:01:00.000192",
        "meta_mean_motion": 14.43026373,
        "meta_eccentricity": 0.00354571,
        "meta_inclination": 98.871,
        "meta_ra_of_asc_node": 124.2922,
        "meta_arg_of_pericenter": 222.3443,
        "meta_mean_anomaly": 137.5008,
        "meta_ephemeris_type": 0,
        "meta_classification_type": "U",
        "meta_norad_cat_id": 38725,
        "meta_element_set_no": 999,
        "meta_rev_at_epoch": 73523,
        "meta_bstar": 0.0028859508,
        "meta_mean_motion_dot": 9.707e-05,
        "meta_mean_motion_ddot": 0,
        "tle_line1": "1 38725U 99025ETS 25358.58402778  .00009707  00000+0  28860-2 0  9992",
        "tle_line2": "2 38725  98.8710 124.2922 0035457 222.3443 137.5008 14.43026373735233"
      },
      "geometry": {
        "type": "Point",
        "coordinates": [
          -36.880180474742126,
          59.444948209411194
        ]
      }
    },
    {
      "type": "Feature",
      "properties": {
        "norad_id": 38726,
        "name": "FENGYUN 1C DEB",
        "group": "fengyun-1c-debris",
        "lat": -19.819244278723694,
        "lon": -154.58747218716576,
        "alt_km": 563.0784338766471,
        "timestamp": "2025-12-27T22:26:48.892697+00:00",
        "meta_object_name": "FENGYUN 1C DEB",
        "meta_object_id": "1999-025ETT",
        "meta_epoch": "2025-12-26T20:02:26.983392",
        "meta_mean_motion": 15.05352652,
        "meta_eccentricity": 0.00225822,
        "meta_inclination": 99.134,
        "meta_ra_of_asc_node": 27.4361,
        "meta_arg_of_pericenter": 82.408,
        "meta_mean_anomaly": 277.9706,
        "meta_ephemeris_type": 0,
        "meta_classification_type": "U",
        "meta_norad_cat_id": 38726,
        "meta_element_set_no": 999,
        "meta_rev_at_epoch": 70067,
        "meta_bstar": 0.0060607308,
        "meta_mean_motion_dot": 0.00088262,
        "meta_mean_motion_ddot": 0,
        "tle_line1": "1 38726U 99025ETT 25360.83503453  .00088262  00000+0  60607-2 0  9994",
        "tle_line2": "2 38726  99.1340  27.4361 0022582  82.4080 277.9706 15.05352652700670"
      },
      "geometry": {
        "type": "Point",
        "coordinates": [
          -154.58747218716576,
          -19.819244278723694
        ]
      }
    }
  ]
}